STARLINK-36858          
1 68021U 26040G   26067.91668981 -.00919130  30577-3 -11795-2 0  9993
2 68021  97.2789  16.0187 0000874 103.3371 240.7576 16.07296992  2296
STARLINK-36916          
1 68022U 26040H   26067.91668981 -.00914683  30349-3 -11649-2 0  9997
2 68022  97.2793  16.0202 0000830 100.7644 245.5348 16.07417796  2293
STARLINK-36871          
1 68023U 26040J   26067.91668981 -.00917102  30544-3 -11594-2 0  9993
2 68023  97.2788  16.0207 0000878  89.6239 258.7584 16.07536633  2290
STARLINK-36891          
1 68024U 26040K   26067.91668981 -.00928177  31293-3 -11618-2 0  9997
2 68024  97.2788  16.0222 0000899  98.1610 252.8013 16.07696328  2299
STARLINK-36378          
1 68025U 26040L   26067.91668981 -.00901063  29712-3 -11109-2 0  9991
2 68025  97.2793  16.0242 0000859  98.8838 256.6159 16.07934442  2243
STARLINK-36884          
1 68026U 26040M   26067.91668981 -.00907437  30056-3 -11273-2 0  9998
2 68026  97.2790  16.0228 0000776  94.9613 258.3444 16.07814215  2297
STARLINK-36940          
1 68027U 26040N   26067.91668981 -.01148517  47851-3 -12359-2 0  9993
2 68027  97.2773  16.0426 0000927 106.3893 292.9744 16.10101385  2394
STARLINK-36253          
1 68028U 26040P   26067.91668981 -.02261714  14641-2 -52000-2 0  9997
2 68028  97.2791  15.9858 0001598 115.0333 157.1321 15.97463118  2407
STARLINK-36944          
1 68029U 26040Q   26067.91668981 -.00905539  30031-3 -11081-2 0  9992
2 68029  97.2783  16.0244 0000759  84.0575 273.4001 16.08053486  2291
STARLINK-36942          
1 68030U 26040R   26067.91668981 -.00894993  29432-3 -10867-2 0  9999
2 68030  97.2790  16.0256 0000860 100.8545 258.8530 16.08175583  2298
STARLINK-36913          
1 68031U 26040S   26067.91668981 -.00896860  29596-3 -10799-2 0  9990
2 68031  97.2788  16.0263 0000719  95.7995 266.1328 16.08308497  2297
STARLINK-36935          
1 68032U 26040T   26067.91668981 -.00948980  33253-3 -10774-2 0  9990
2 68032  97.2779  16.0326 0000806  95.1721 281.7716 16.09240733  2390
