CCSDS_OMM_VERS = 2.0
CREATION_DATE  = 
ORIGINATOR     = 

OBJECT_NAME    = STARLINK-36858
OBJECT_ID      = 2026-040G
CENTER_NAME    = EARTH
REF_FRAME      = TEME
TIME_SYSTEM    = UTC
MEAN_ELEMENT_THEORY = SGP/SGP4

EPOCH          = 2026-03-08T22:00:01.999584
MEAN_MOTION    = 16.07296992
ECCENTRICITY   = .00008746
INCLINATION    = 97.2789
RA_OF_ASC_NODE = 16.0187
ARG_OF_PERICENTER = 103.3371
MEAN_ANOMALY   = 240.7576

EPHEMERIS_TYPE = 0
CLASSIFICATION_TYPE = U
NORAD_CAT_ID   = 68021
ELEMENT_SET_NO = 999
REV_AT_EPOCH   = 229
BSTAR          = -.1179466E-2
MEAN_MOTION_DOT = -.91913E-2
MEAN_MOTION_DDOT = .30576616E-3

CCSDS_OMM_VERS = 2.0
CREATION_DATE  = 
ORIGINATOR     = 

OBJECT_NAME    = STARLINK-36916
OBJECT_ID      = 2026-040H
CENTER_NAME    = EARTH
REF_FRAME      = TEME
TIME_SYSTEM    = UTC
MEAN_ELEMENT_THEORY = SGP/SGP4

EPOCH          = 2026-03-08T22:00:01.999584
MEAN_MOTION    = 16.07417796
ECCENTRICITY   = .00008306
INCLINATION    = 97.2793
RA_OF_ASC_NODE = 16.0202
ARG_OF_PERICENTER = 100.7644
MEAN_ANOMALY   = 245.5348

EPHEMERIS_TYPE = 0
CLASSIFICATION_TYPE = U
NORAD_CAT_ID   = 68022
ELEMENT_SET_NO = 999
REV_AT_EPOCH   = 229
BSTAR          = -.11649083E-2
MEAN_MOTION_DOT = -.914683E-2
MEAN_MOTION_DDOT = .30349429E-3

CCSDS_OMM_VERS = 2.0
CREATION_DATE  = 
ORIGINATOR     = 

OBJECT_NAME    = STARLINK-36871
OBJECT_ID      = 2026-040J
CENTER_NAME    = EARTH
REF_FRAME      = TEME
TIME_SYSTEM    = UTC
MEAN_ELEMENT_THEORY = SGP/SGP4

EPOCH          = 2026-03-08T22:00:01.999584
MEAN_MOTION    = 16.07536633
ECCENTRICITY   = .00008786
INCLINATION    = 97.2788
RA_OF_ASC_NODE = 16.0207
ARG_OF_PERICENTER = 89.6239
MEAN_ANOMALY   = 258.7584

EPHEMERIS_TYPE = 0
CLASSIFICATION_TYPE = U
NORAD_CAT_ID   = 68023
ELEMENT_SET_NO = 999
REV_AT_EPOCH   = 229
BSTAR          = -.11593687E-2
MEAN_MOTION_DOT = -.917102E-2
MEAN_MOTION_DDOT = .30544028E-3

CCSDS_OMM_VERS = 2.0
CREATION_DATE  = 
ORIGINATOR     = 

OBJECT_NAME    = STARLINK-36891
OBJECT_ID      = 2026-040K
CENTER_NAME    = EARTH
REF_FRAME      = TEME
TIME_SYSTEM    = UTC
MEAN_ELEMENT_THEORY = SGP/SGP4

EPOCH          = 2026-03-08T22:00:01.999584
MEAN_MOTION    = 16.07696328
ECCENTRICITY   = .0000899
INCLINATION    = 97.2788
RA_OF_ASC_NODE = 16.0222
ARG_OF_PERICENTER = 98.1610
MEAN_ANOMALY   = 252.8013

EPHEMERIS_TYPE = 0
CLASSIFICATION_TYPE = U
NORAD_CAT_ID   = 68024
ELEMENT_SET_NO = 999
REV_AT_EPOCH   = 229
BSTAR          = -.11618141E-2
MEAN_MOTION_DOT = -.928177E-2
MEAN_MOTION_DDOT = .31293092E-3

CCSDS_OMM_VERS = 2.0
CREATION_DATE  = 
ORIGINATOR     = 

OBJECT_NAME    = STARLINK-36378
OBJECT_ID      = 2026-040L
CENTER_NAME    = EARTH
REF_FRAME      = TEME
TIME_SYSTEM    = UTC
MEAN_ELEMENT_THEORY = SGP/SGP4

EPOCH          = 2026-03-08T22:00:01.999584
MEAN_MOTION    = 16.07934442
ECCENTRICITY   = .00008599
INCLINATION    = 97.2793
RA_OF_ASC_NODE = 16.0242
ARG_OF_PERICENTER = 98.8838
MEAN_ANOMALY   = 256.6159

EPHEMERIS_TYPE = 0
CLASSIFICATION_TYPE = U
NORAD_CAT_ID   = 68025
ELEMENT_SET_NO = 999
REV_AT_EPOCH   = 224
BSTAR          = -.1110873E-2
MEAN_MOTION_DOT = -.901063E-2
MEAN_MOTION_DDOT = .29711524E-3

CCSDS_OMM_VERS = 2.0
CREATION_DATE  = 
ORIGINATOR     = 

OBJECT_NAME    = STARLINK-36884
OBJECT_ID      = 2026-040M
CENTER_NAME    = EARTH
REF_FRAME      = TEME
TIME_SYSTEM    = UTC
MEAN_ELEMENT_THEORY = SGP/SGP4

EPOCH          = 2026-03-08T22:00:01.999584
MEAN_MOTION    = 16.07814215
ECCENTRICITY   = .0000776
INCLINATION    = 97.2790
RA_OF_ASC_NODE = 16.0228
ARG_OF_PERICENTER = 94.9613
MEAN_ANOMALY   = 258.3444

EPHEMERIS_TYPE = 0
CLASSIFICATION_TYPE = U
NORAD_CAT_ID   = 68026
ELEMENT_SET_NO = 999
REV_AT_EPOCH   = 229
BSTAR          = -.112729E-2
MEAN_MOTION_DOT = -.907437E-2
MEAN_MOTION_DDOT = .30056014E-3

CCSDS_OMM_VERS = 2.0
CREATION_DATE  = 
ORIGINATOR     = 

OBJECT_NAME    = STARLINK-36940
OBJECT_ID      = 2026-040N
CENTER_NAME    = EARTH
REF_FRAME      = TEME
TIME_SYSTEM    = UTC
MEAN_ELEMENT_THEORY = SGP/SGP4

EPOCH          = 2026-03-08T22:00:01.999584
MEAN_MOTION    = 16.10101385
ECCENTRICITY   = .00009272
INCLINATION    = 97.2773
RA_OF_ASC_NODE = 16.0426
ARG_OF_PERICENTER = 106.3893
MEAN_ANOMALY   = 292.9744

EPHEMERIS_TYPE = 0
CLASSIFICATION_TYPE = U
NORAD_CAT_ID   = 68027
ELEMENT_SET_NO = 999
REV_AT_EPOCH   = 239
BSTAR          = -.123586E-2
MEAN_MOTION_DOT = -.1148517E-1
MEAN_MOTION_DDOT = .47850997E-3

CCSDS_OMM_VERS = 2.0
CREATION_DATE  = 
ORIGINATOR     = 

OBJECT_NAME    = STARLINK-36253
OBJECT_ID      = 2026-040P
CENTER_NAME    = EARTH
REF_FRAME      = TEME
TIME_SYSTEM    = UTC
MEAN_ELEMENT_THEORY = SGP/SGP4

EPOCH          = 2026-03-08T22:00:01.999584
MEAN_MOTION    = 15.97463118
ECCENTRICITY   = .0001598
INCLINATION    = 97.2791
RA_OF_ASC_NODE = 15.9858
ARG_OF_PERICENTER = 115.0333
MEAN_ANOMALY   = 157.1321

EPHEMERIS_TYPE = 0
CLASSIFICATION_TYPE = U
NORAD_CAT_ID   = 68028
ELEMENT_SET_NO = 999
REV_AT_EPOCH   = 240
BSTAR          = -.51999673E-2
MEAN_MOTION_DOT = -.2261714E-1
MEAN_MOTION_DDOT = .14641368E-2

CCSDS_OMM_VERS = 2.0
CREATION_DATE  = 
ORIGINATOR     = 

OBJECT_NAME    = STARLINK-36944
OBJECT_ID      = 2026-040Q
CENTER_NAME    = EARTH
REF_FRAME      = TEME
TIME_SYSTEM    = UTC
MEAN_ELEMENT_THEORY = SGP/SGP4

EPOCH          = 2026-03-08T22:00:01.999584
MEAN_MOTION    = 16.08053486
ECCENTRICITY   = .00007593
INCLINATION    = 97.2783
RA_OF_ASC_NODE = 16.0244
ARG_OF_PERICENTER = 84.0575
MEAN_ANOMALY   = 273.4001

EPHEMERIS_TYPE = 0
CLASSIFICATION_TYPE = U
NORAD_CAT_ID   = 68029
ELEMENT_SET_NO = 999
REV_AT_EPOCH   = 229
BSTAR          = -.11081176E-2
MEAN_MOTION_DOT = -.905539E-2
MEAN_MOTION_DDOT = .30030928E-3

CCSDS_OMM_VERS = 2.0
CREATION_DATE  = 
ORIGINATOR     = 

OBJECT_NAME    = STARLINK-36942
OBJECT_ID      = 2026-040R
CENTER_NAME    = EARTH
REF_FRAME      = TEME
TIME_SYSTEM    = UTC
MEAN_ELEMENT_THEORY = SGP/SGP4

EPOCH          = 2026-03-08T22:00:01.999584
MEAN_MOTION    = 16.08175583
ECCENTRICITY   = .00008609
INCLINATION    = 97.2790
RA_OF_ASC_NODE = 16.0256
ARG_OF_PERICENTER = 100.8545
MEAN_ANOMALY   = 258.8530

EPHEMERIS_TYPE = 0
CLASSIFICATION_TYPE = U
NORAD_CAT_ID   = 68030
ELEMENT_SET_NO = 999
REV_AT_EPOCH   = 229
BSTAR          = -.10866985E-2
MEAN_MOTION_DOT = -.894993E-2
MEAN_MOTION_DDOT = .29432177E-3

CCSDS_OMM_VERS = 2.0
CREATION_DATE  = 
ORIGINATOR     = 

OBJECT_NAME    = STARLINK-36913
OBJECT_ID      = 2026-040S
CENTER_NAME    = EARTH
REF_FRAME      = TEME
TIME_SYSTEM    = UTC
MEAN_ELEMENT_THEORY = SGP/SGP4

EPOCH          = 2026-03-08T22:00:01.999584
MEAN_MOTION    = 16.08308497
ECCENTRICITY   = .0000719
INCLINATION    = 97.2788
RA_OF_ASC_NODE = 16.0263
ARG_OF_PERICENTER = 95.7995
MEAN_ANOMALY   = 266.1328

EPHEMERIS_TYPE = 0
CLASSIFICATION_TYPE = U
NORAD_CAT_ID   = 68031
ELEMENT_SET_NO = 999
REV_AT_EPOCH   = 229
BSTAR          = -.10798985E-2
MEAN_MOTION_DOT = -.89686E-2
MEAN_MOTION_DDOT = .29596168E-3

CCSDS_OMM_VERS = 2.0
CREATION_DATE  = 
ORIGINATOR     = 

OBJECT_NAME    = STARLINK-36935
OBJECT_ID      = 2026-040T
CENTER_NAME    = EARTH
REF_FRAME      = TEME
TIME_SYSTEM    = UTC
MEAN_ELEMENT_THEORY = SGP/SGP4

EPOCH          = 2026-03-08T22:00:01.999584
MEAN_MOTION    = 16.09240733
ECCENTRICITY   = .00008064
INCLINATION    = 97.2779
RA_OF_ASC_NODE = 16.0326
ARG_OF_PERICENTER = 95.1721
MEAN_ANOMALY   = 281.7716

EPHEMERIS_TYPE = 0
CLASSIFICATION_TYPE = U
NORAD_CAT_ID   = 68032
ELEMENT_SET_NO = 999
REV_AT_EPOCH   = 239
BSTAR          = -.10773584E-2
MEAN_MOTION_DOT = -.94898E-2
MEAN_MOTION_DDOT = .33252926E-3

